<!doctype html>

<html>

<head>

<title>TLE for NORAD Catalog Number 44261</title>

</head>

<body>

<pre>
STARLINK-44             
1 44261U 19029AC  19301.91811741  .00001607  00000-0  12975-3 0  9995
2 44261  52.9995 183.7282 0002305  90.4476 269.6776 15.05481734 22992

</pre>
	
</body>

</html>
